STARLINK-36517          
1 67454U 26008K   26038.50001156 -.00103943  00000+0 -17870-2 0  9995
2 67454  43.0001  17.5223 0001200 273.1415 116.5583 15.50619807  4962
STARLINK-36516          
1 67455U 26008L   26038.50001156 -.00101579  00000+0 -17451-2 0  9994
2 67455  43.0002  17.3856 0001467 269.4789 176.0910 15.50627952  4944
STARLINK-36493          
1 67456U 26008M   26038.50001156 -.00070676  00000+0 -12087-2 0  9998
2 67456  43.0003  17.3531 0001297 266.4949 192.0538 15.50604303  4941
STARLINK-36529          
1 67457U 26008N   26038.50001156 -.02054096  00000+0 -34313-1 0  9994
2 67457  43.0004  17.1087 0000822 273.0527 284.5319 15.54321492  4949
STARLINK-36528          
1 67458U 26008P   26038.50001156 -.02060452  00000+0 -27412-1 0  9990
2 67458  42.9998  16.8737 0001282 265.4027  27.3929 15.60893090  4966
STARLINK-36546          
1 67459U 26008Q   26038.50001156 -.02049817  00000+0 -34167-1 0  9998
2 67459  43.0002  17.0922 0001018 268.8024 295.4326 15.54371698  4940
STARLINK-36523          
1 67460U 26008R   26038.50001156 -.02057134  00000+0 -33505-1 0  9996
2 67460  43.0004  17.0618 0000907 272.5369 303.8850 15.55008248  4963
STARLINK-36522          
1 67461U 26008S   26038.50001156 -.00095799  00000+0 -16449-2 0  9993
2 67461  43.0004  17.3462 0001536 267.1454 193.5938 15.50617682  4940
STARLINK-36504          
1 67462U 26008T   26038.50001156 -.02105281  00000+0 -29816-1 0  9995
2 67462  43.0002  16.9176 0001208 263.5253  11.2258 15.58785287  4967
STARLINK-36505          
1 67463U 26008U   26038.50001156 -.02087450  00000+0 -32031-1 0  9996
2 67463  43.0003  16.9857 0000934 270.0906 337.0937 15.56648877  4940
STARLINK-36421          
1 67464U 26008V   26038.50001156  .00001544  00000+0  32121-4 0  9996
2 67464  43.0001  17.3390 0001353 290.2816 173.7501 15.50598975  4945
STARLINK-36437          
1 67465U 26008W   26038.50001156 -.02071532  00000+0 -31312-1 0  9993
2 67465  43.0003  16.9611 0000919 263.2087 353.4698 15.57023475  4945
