CCSDS_OMM_VERS = 2.0
CREATION_DATE  = 
ORIGINATOR     = 

OBJECT_NAME    = STARLINK-36517
OBJECT_ID      = 2026-008K
CENTER_NAME    = EARTH
REF_FRAME      = TEME
TIME_SYSTEM    = UTC
MEAN_ELEMENT_THEORY = SGP/SGP4

EPOCH          = 2026-02-07T12:00:00.998784
MEAN_MOTION    = 15.50619807
ECCENTRICITY   = .00012
INCLINATION    = 43.0001
RA_OF_ASC_NODE = 17.5223
ARG_OF_PERICENTER = 273.1415
MEAN_ANOMALY   = 116.5583

EPHEMERIS_TYPE = 0
CLASSIFICATION_TYPE = U
NORAD_CAT_ID   = 67454
ELEMENT_SET_NO = 999
REV_AT_EPOCH   = 496
BSTAR          = -.1787E-2
MEAN_MOTION_DOT = -.103943E-2
MEAN_MOTION_DDOT = 0

CCSDS_OMM_VERS = 2.0
CREATION_DATE  = 
ORIGINATOR     = 

OBJECT_NAME    = STARLINK-36516
OBJECT_ID      = 2026-008L
CENTER_NAME    = EARTH
REF_FRAME      = TEME
TIME_SYSTEM    = UTC
MEAN_ELEMENT_THEORY = SGP/SGP4

EPOCH          = 2026-02-07T12:00:00.998784
MEAN_MOTION    = 15.50627952
ECCENTRICITY   = .0001467
INCLINATION    = 43.0002
RA_OF_ASC_NODE = 17.3856
ARG_OF_PERICENTER = 269.4789
MEAN_ANOMALY   = 176.0910

EPHEMERIS_TYPE = 0
CLASSIFICATION_TYPE = U
NORAD_CAT_ID   = 67455
ELEMENT_SET_NO = 999
REV_AT_EPOCH   = 494
BSTAR          = -.17451E-2
MEAN_MOTION_DOT = -.101579E-2
MEAN_MOTION_DDOT = 0

CCSDS_OMM_VERS = 2.0
CREATION_DATE  = 
ORIGINATOR     = 

OBJECT_NAME    = STARLINK-36493
OBJECT_ID      = 2026-008M
CENTER_NAME    = EARTH
REF_FRAME      = TEME
TIME_SYSTEM    = UTC
MEAN_ELEMENT_THEORY = SGP/SGP4

EPOCH          = 2026-02-07T12:00:00.998784
MEAN_MOTION    = 15.50604303
ECCENTRICITY   = .0001297
INCLINATION    = 43.0003
RA_OF_ASC_NODE = 17.3531
ARG_OF_PERICENTER = 266.4949
MEAN_ANOMALY   = 192.0538

EPHEMERIS_TYPE = 0
CLASSIFICATION_TYPE = U
NORAD_CAT_ID   = 67456
ELEMENT_SET_NO = 999
REV_AT_EPOCH   = 494
BSTAR          = -.12087E-2
MEAN_MOTION_DOT = -.70676E-3
MEAN_MOTION_DDOT = 0

CCSDS_OMM_VERS = 2.0
CREATION_DATE  = 
ORIGINATOR     = 

OBJECT_NAME    = STARLINK-36529
OBJECT_ID      = 2026-008N
CENTER_NAME    = EARTH
REF_FRAME      = TEME
TIME_SYSTEM    = UTC
MEAN_ELEMENT_THEORY = SGP/SGP4

EPOCH          = 2026-02-07T12:00:00.998784
MEAN_MOTION    = 15.54321492
ECCENTRICITY   = .0000822
INCLINATION    = 43.0004
RA_OF_ASC_NODE = 17.1087
ARG_OF_PERICENTER = 273.0527
MEAN_ANOMALY   = 284.5319

EPHEMERIS_TYPE = 0
CLASSIFICATION_TYPE = U
NORAD_CAT_ID   = 67457
ELEMENT_SET_NO = 999
REV_AT_EPOCH   = 494
BSTAR          = -.34313E-1
MEAN_MOTION_DOT = -.2054096E-1
MEAN_MOTION_DDOT = 0

CCSDS_OMM_VERS = 2.0
CREATION_DATE  = 
ORIGINATOR     = 

OBJECT_NAME    = STARLINK-36528
OBJECT_ID      = 2026-008P
CENTER_NAME    = EARTH
REF_FRAME      = TEME
TIME_SYSTEM    = UTC
MEAN_ELEMENT_THEORY = SGP/SGP4

EPOCH          = 2026-02-07T12:00:00.998784
MEAN_MOTION    = 15.60893090
ECCENTRICITY   = .0001282
INCLINATION    = 42.9998
RA_OF_ASC_NODE = 16.8737
ARG_OF_PERICENTER = 265.4027
MEAN_ANOMALY   = 27.3929

EPHEMERIS_TYPE = 0
CLASSIFICATION_TYPE = U
NORAD_CAT_ID   = 67458
ELEMENT_SET_NO = 999
REV_AT_EPOCH   = 496
BSTAR          = -.27412E-1
MEAN_MOTION_DOT = -.2060452E-1
MEAN_MOTION_DDOT = 0

CCSDS_OMM_VERS = 2.0
CREATION_DATE  = 
ORIGINATOR     = 

OBJECT_NAME    = STARLINK-36546
OBJECT_ID      = 2026-008Q
CENTER_NAME    = EARTH
REF_FRAME      = TEME
TIME_SYSTEM    = UTC
MEAN_ELEMENT_THEORY = SGP/SGP4

EPOCH          = 2026-02-07T12:00:00.998784
MEAN_MOTION    = 15.54371698
ECCENTRICITY   = .0001018
INCLINATION    = 43.0002
RA_OF_ASC_NODE = 17.0922
ARG_OF_PERICENTER = 268.8024
MEAN_ANOMALY   = 295.4326

EPHEMERIS_TYPE = 0
CLASSIFICATION_TYPE = U
NORAD_CAT_ID   = 67459
ELEMENT_SET_NO = 999
REV_AT_EPOCH   = 494
BSTAR          = -.34167E-1
MEAN_MOTION_DOT = -.2049817E-1
MEAN_MOTION_DDOT = 0

CCSDS_OMM_VERS = 2.0
CREATION_DATE  = 
ORIGINATOR     = 

OBJECT_NAME    = STARLINK-36523
OBJECT_ID      = 2026-008R
CENTER_NAME    = EARTH
REF_FRAME      = TEME
TIME_SYSTEM    = UTC
MEAN_ELEMENT_THEORY = SGP/SGP4

EPOCH          = 2026-02-07T12:00:00.998784
MEAN_MOTION    = 15.55008248
ECCENTRICITY   = .0000907
INCLINATION    = 43.0004
RA_OF_ASC_NODE = 17.0618
ARG_OF_PERICENTER = 272.5369
MEAN_ANOMALY   = 303.8850

EPHEMERIS_TYPE = 0
CLASSIFICATION_TYPE = U
NORAD_CAT_ID   = 67460
ELEMENT_SET_NO = 999
REV_AT_EPOCH   = 496
BSTAR          = -.33505E-1
MEAN_MOTION_DOT = -.2057134E-1
MEAN_MOTION_DDOT = 0

CCSDS_OMM_VERS = 2.0
CREATION_DATE  = 
ORIGINATOR     = 

OBJECT_NAME    = STARLINK-36522
OBJECT_ID      = 2026-008S
CENTER_NAME    = EARTH
REF_FRAME      = TEME
TIME_SYSTEM    = UTC
MEAN_ELEMENT_THEORY = SGP/SGP4

EPOCH          = 2026-02-07T12:00:00.998784
MEAN_MOTION    = 15.50617682
ECCENTRICITY   = .0001536
INCLINATION    = 43.0004
RA_OF_ASC_NODE = 17.3462
ARG_OF_PERICENTER = 267.1454
MEAN_ANOMALY   = 193.5938

EPHEMERIS_TYPE = 0
CLASSIFICATION_TYPE = U
NORAD_CAT_ID   = 67461
ELEMENT_SET_NO = 999
REV_AT_EPOCH   = 494
BSTAR          = -.16449E-2
MEAN_MOTION_DOT = -.95799E-3
MEAN_MOTION_DDOT = 0

CCSDS_OMM_VERS = 2.0
CREATION_DATE  = 
ORIGINATOR     = 

OBJECT_NAME    = STARLINK-36504
OBJECT_ID      = 2026-008T
CENTER_NAME    = EARTH
REF_FRAME      = TEME
TIME_SYSTEM    = UTC
MEAN_ELEMENT_THEORY = SGP/SGP4

EPOCH          = 2026-02-07T12:00:00.998784
MEAN_MOTION    = 15.58785287
ECCENTRICITY   = .0001208
INCLINATION    = 43.0002
RA_OF_ASC_NODE = 16.9176
ARG_OF_PERICENTER = 263.5253
MEAN_ANOMALY   = 11.2258

EPHEMERIS_TYPE = 0
CLASSIFICATION_TYPE = U
NORAD_CAT_ID   = 67462
ELEMENT_SET_NO = 999
REV_AT_EPOCH   = 496
BSTAR          = -.29816E-1
MEAN_MOTION_DOT = -.2105281E-1
MEAN_MOTION_DDOT = 0

CCSDS_OMM_VERS = 2.0
CREATION_DATE  = 
ORIGINATOR     = 

OBJECT_NAME    = STARLINK-36505
OBJECT_ID      = 2026-008U
CENTER_NAME    = EARTH
REF_FRAME      = TEME
TIME_SYSTEM    = UTC
MEAN_ELEMENT_THEORY = SGP/SGP4

EPOCH          = 2026-02-07T12:00:00.998784
MEAN_MOTION    = 15.56648877
ECCENTRICITY   = .0000934
INCLINATION    = 43.0003
RA_OF_ASC_NODE = 16.9857
ARG_OF_PERICENTER = 270.0906
MEAN_ANOMALY   = 337.0937

EPHEMERIS_TYPE = 0
CLASSIFICATION_TYPE = U
NORAD_CAT_ID   = 67463
ELEMENT_SET_NO = 999
REV_AT_EPOCH   = 494
BSTAR          = -.32031E-1
MEAN_MOTION_DOT = -.208745E-1
MEAN_MOTION_DDOT = 0

CCSDS_OMM_VERS = 2.0
CREATION_DATE  = 
ORIGINATOR     = 

OBJECT_NAME    = STARLINK-36421
OBJECT_ID      = 2026-008V
CENTER_NAME    = EARTH
REF_FRAME      = TEME
TIME_SYSTEM    = UTC
MEAN_ELEMENT_THEORY = SGP/SGP4

EPOCH          = 2026-02-07T12:00:00.998784
MEAN_MOTION    = 15.50598975
ECCENTRICITY   = .0001353
INCLINATION    = 43.0001
RA_OF_ASC_NODE = 17.3390
ARG_OF_PERICENTER = 290.2816
MEAN_ANOMALY   = 173.7501

EPHEMERIS_TYPE = 0
CLASSIFICATION_TYPE = U
NORAD_CAT_ID   = 67464
ELEMENT_SET_NO = 999
REV_AT_EPOCH   = 494
BSTAR          = .32121E-4
MEAN_MOTION_DOT = .1544E-4
MEAN_MOTION_DDOT = 0

CCSDS_OMM_VERS = 2.0
CREATION_DATE  = 
ORIGINATOR     = 

OBJECT_NAME    = STARLINK-36437
OBJECT_ID      = 2026-008W
CENTER_NAME    = EARTH
REF_FRAME      = TEME
TIME_SYSTEM    = UTC
MEAN_ELEMENT_THEORY = SGP/SGP4

EPOCH          = 2026-02-07T12:00:00.998784
MEAN_MOTION    = 15.57023475
ECCENTRICITY   = .0000919
INCLINATION    = 43.0003
RA_OF_ASC_NODE = 16.9611
ARG_OF_PERICENTER = 263.2087
MEAN_ANOMALY   = 353.4698

EPHEMERIS_TYPE = 0
CLASSIFICATION_TYPE = U
NORAD_CAT_ID   = 67465
ELEMENT_SET_NO = 999
REV_AT_EPOCH   = 494
BSTAR          = -.31312E-1
MEAN_MOTION_DOT = -.2071532E-1
MEAN_MOTION_DDOT = 0

